YOTSUBA-KULOVER         
1 65941U 98067XN  26069.14824600  .00258279  00000+0  12778-2 0  9992
2 65941  51.6218  54.9144 0005439  70.0426 290.1161 15.80743996 23576
E-KAGAKU-1              
1 65943U 98067XQ  26069.21603665  .00256350  00000+0  12874-2 0  9993
2 65943  51.6235  54.6346 0005848  77.5025 282.6631 15.80419644 23588
HRC MONOBLOCK CAMERA    
1 66052U 98067XR  26069.14813696  .00064288  00000+0  71499-3 0  9990
2 66052  51.6279  63.2192 0003667  93.4712 266.6702 15.62255862 22467
HTV-X1                  
1 66174U 25241A   26069.15865511  .00009130  00000+0  17626-3 0  9990
2 66174  51.6324  70.0375 0007971 176.2903 183.8146 15.48557200554474
SZ-21 MODULE            
1 66515U 25246C   26067.73638915  .00047754  00000+0  41113-3 0  9994
2 66515  41.4736 209.2286 0001365 296.9264  63.1439 15.68463397 17929
SHENZHOU-22             
1 66645U 25272A   26069.29149981  .00027696  00000+0  32677-3 0  9998
2 66645  41.4662 204.4993 0006978 276.4011  83.6033 15.60691261267526
SOYUZ-MS 28             
1 66664U 25275A   26069.15865511  .00009130  00000+0  17626-3 0  9991
2 66664  51.6324  70.0375 0007971 176.2903 183.8146 15.48557200554524
DUPLEX                  
1 66906U 98067XS  26069.22830697  .00039985  00000+0  56262-3 0  9994
2 66906  51.6295  66.7564 0002512 114.8422 245.2831 15.56252991 15212
ISS OBJECT XT           
1 66907U 98067XT  26069.21962525  .00189996  00000+0  15519-2 0  9997
2 66907  51.6253  62.9330 0004725  80.8513 279.3019 15.69436118 15267
ISS OBJECT XU           
1 66908U 98067XU  26069.21778131  .00191440  00000+0  15554-2 0  9992
2 66908  51.6259  62.9179 0004867  83.0820 277.0731 15.69558818 15266
SILVERSAT               
1 66909U 98067XV  26069.21803307  .00249186  00000+0  17776-2 0  9996
2 66909  51.6252  62.1676 0005475  80.1195 280.0421 15.72479555 15278
ISS OBJECT XW           
1 66910U 98067XW  26069.02360999  .00150696  00000+0  12763-2 0  9990
2 66910  51.6250  63.8675 0005175  86.7803 273.3786 15.68689366 15233
